OBJECT_NAME,OBJECT_ID,EPOCH,MEAN_MOTION,ECCENTRICITY,INCLINATION,RA_OF_ASC_NODE,ARG_OF_PERICENTER,MEAN_ANOMALY,EPHEMERIS_TYPE,CLASSIFICATION_TYPE,NORAD_CAT_ID,ELEMENT_SET_NO,REV_AT_EPOCH,BSTAR,MEAN_MOTION_DOT,MEAN_MOTION_DDOT
GPS BIIR-5  (PRN 22),2000-040A,2026-06-08T09:50:22.752384,2.00557616,.01211536,54.8525,215.5111,302.4225,123.9688,0,U,26407,999,18977,0,.52E-6,0
GPS BIIR-8  (PRN 16),2003-005A,2026-06-08T15:05:22.672032,2.00561021,.0147964,54.8834,215.3091,53.0778,307.1534,0,U,27663,999,17113,0,.54E-6,0
GPS BIIR-11 (PRN 19),2004-009A,2026-06-08T11:01:35.501952,2.00555014,.01157569,54.8373,276.0401,172.6865,218.6401,0,U,28190,999,16277,0,-.39E-6,0
GPS BIIR-13 (PRN 02),2004-045A,2026-06-07T08:29:39.413760,2.00555496,.0169828,55.1426,325.2921,316.1566,61.9153,0,U,28474,999,15823,0,-.59E-6,0
GPS BIIRM-1 (PRN 17),2005-038A,2026-06-08T08:33:59.590944,2.00566282,.01278066,54.8855,273.5341,296.0902,49.5226,0,U,28874,999,15165,0,-.37E-6,0
INMARSAT 4-F2 (SOUTHPAN/PRN 122),2005-044A,2026-06-08T14:03:53.151840,1.00272240,.0003033,5.0825,43.7036,34.3540,173.3775,0,U,28899,999,7543,0,-.246E-5,0
GPS BIIRM-2 (PRN 31),2006-042A,2026-06-06T06:33:10.642176,2.00570539,.01063665,54.7093,151.7723,54.1524,125.0487,0,U,29486,999,14417,0,.92E-6,0
GPS BIIRM-3 (PRN 12),2006-052A,2026-06-07T22:41:01.937184,2.00557721,.00853411,54.9359,214.3727,90.7744,270.2804,0,U,29601,999,14322,0,.5E-6,0
GPS BIIRM-4 (PRN 15),2007-047A,2026-06-08T06:00:04.321728,2.00555680,.01664111,54.0887,80.4341,87.2037,274.7014,0,U,32260,999,13663,0,-.13E-6,0
COSMOS 2433 (720),2007-052A,2026-06-07T23:59:37.230144,2.13104383,.00021753,65.5821,316.2429,191.1686,168.8259,0,U,32275,999,14486,0,-.28E-6,0
COSMOS 2432 (719),2007-052B,2026-06-08T01:37:38.809920,2.13103443,.00078807,65.5986,316.3679,333.8605,22.2735,0,U,32276,999,14488,0,-.28E-6,0
GPS BIIRM-5 (PRN 29),2007-062A,2026-06-08T14:03:50.151168,2.00559578,.0035585,55.0388,274.4987,165.0710,204.7147,0,U,32384,999,13534,0,-.38E-6,0
COSMOS 2434 (721),2007-065A,2026-06-07T05:55:45.925248,2.13101527,.0001095,64.3173,192.2510,341.2525,51.1973,0,U,32393,999,14356,0,.85E-6,0
COSMOS 2436 (723),2007-065C,2026-06-08T16:13:29.282304,2.13100339,.0017243,64.3258,192.2748,354.3045,186.7553,0,U,32395,999,14354,0,.1E-5,0
GPS BIIRM-6 (PRN 07),2008-012A,2026-06-08T03:53:32.067744,2.00572204,.02110849,54.4962,150.2852,247.7307,110.0246,0,U,32711,999,13357,0,.108E-5,0
GPS BIIRM-8 (PRN 05),2009-043A,2026-06-08T07:17:15.461088,2.00554745,.0053714,56.2048,27.8007,82.8286,29.7907,0,U,35752,999,12318,0,-.67E-6,0
COSMOS 2456 (730),2009-070A,2026-06-06T19:46:03.717696,2.13103969,.00050255,65.0054,71.3252,326.4332,259.2835,0,U,36111,999,12820,0,-.13E-6,0
COSMOS 2457 (733),2009-070B,2026-06-08T11:15:16.881696,2.13101391,.0002435,64.9917,71.1136,127.7304,47.6922,0,U,36112,999,12824,0,-.19E-6,0
COSMOS 2460 (732),2010-007C,2026-06-05T22:24:35.054784,2.13101712,.00021228,65.4275,314.8474,103.7485,288.7249,0,U,36402,999,12649,0,-.3E-6,0
GPS BIIF-1  (PRN 25),2010-022A,2026-06-06T14:14:54.748608,2.00561961,.0126253,54.2711,208.9889,66.1149,10.1649,0,U,36585,999,11738,0,.48E-6,0
BEIDOU-2 IGSO-1 (C06),2010-036A,2026-06-08T15:19:15.669984,1.00275040,.00592541,54.3009,163.0368,225.1321,206.3324,0,U,36828,999,5801,0,-.38E-6,0
BEIDOU-2 G4 (C04),2010-057A,2026-06-08T15:51:16.411968,1.00271962,.0004839,3.6249,68.9969,200.4645,25.4214,0,U,37210,999,5720,0,-.96E-6,0
BEIDOU-2 IGSO-2 (C07),2010-068A,2026-06-06T17:56:34.315296,1.00287050,.00550091,47.5684,271.9632,212.6052,147.2432,0,U,37256,999,5669,0,-.212E-5,0
BEIDOU-2 IGSO-3 (C08),2011-013A,2026-06-08T16:06:03.585312,1.00270208,.0034467,62.3952,40.2341,184.5609,21.7196,0,U,37384,999,5557,0,-.189E-5,0
GSAT-8 (GAGAN/PRN 127),2011-022A,2026-06-08T20:38:49.596000,1.00271115,.0002248,2.1085,81.9244,210.0745,330.0215,0,U,37605,999,5313,0,.101E-5,0
BEIDOU-2 IGSO-4 (C09),2011-038A,2026-06-06T14:49:08.416128,1.00287300,.01590706,54.5986,165.7673,231.3681,173.1210,0,U,37763,999,5454,0,.66E-6,0
GSAT0101 (GALILEO-PFM),2011-060A,2026-06-06T06:57:27.595008,1.70475774,.0003295,56.9979,342.0567,48.4785,311.5631,0,U,37846,999,9093,0,-.66E-6,0
GSAT0102 (GALILEO-FM2),2011-060B,2026-06-07T09:39:10.082592,1.70476015,.00034343,57.0009,342.0270,13.7700,354.5257,0,U,37847,999,9096,0,-.63E-6,0
COSMOS 2476 (744),2011-064A,2026-06-07T20:51:01.818720,2.13104054,.00230213,65.2648,73.1859,239.5806,336.2495,0,U,37867,999,11356,0,-.13E-6,0
COSMOS 2477 (745),2011-064B,2026-06-08T01:19:19.462368,2.13103242,.00200743,65.2718,73.2586,240.9368,298.1963,0,U,37868,999,11356,0,-.14E-6,0
COSMOS 2475 (743),2011-064C,2026-06-08T14:06:00.450144,2.13102065,.00258128,65.2785,73.2625,253.6483,289.0941,0,U,37869,999,11358,0,-.17E-6,0
